API VERSION: 1.2
API SOURCE: NASA/JPL Horizons API



*******************************************************************************
Ephemeris / API_USER Fri Apr  3 11:26:11 2026 Pasadena, USA      / Horizons
*******************************************************************************
Target body name: Mercury (199)                   {source: DE441}
Center body name: Earth (399)                     {source: DE441}
Center-site name: BODY CENTER
*******************************************************************************
Start time      : A.D. 2026-Sep-10 18:53:00.0004 TDB
Stop  time      : A.D. 2026-Sep-12 18:53:00.0004 TDB
Step-size       : 60 minutes
*******************************************************************************
Center geodetic : 0.0, 0.0, 0.0                   {E-lon(deg),Lat(deg),Alt(km)}
Center cylindric: 0.0, 0.0, 0.0                   {E-lon(deg),Dxy(km),Dz(km)}
Center radii    : 6378.137, 6378.137, 6356.752 km {Equator_a, b, pole_c}
Output units    : AU-D
Calendar mode   : Mixed Julian/Gregorian
Output type     : GEOMETRIC cartesian states
Output format   : 3 (position, velocity, LT, range, range-rate)
EOP file        : eop.260402.p260629
EOP coverage    : DATA-BASED 1962-JAN-20 TO 2026-APR-02. PREDICTS-> 2026-JUN-28
Reference frame : ICRF
*******************************************************************************
            JDTDB,            Calendar Date (TDB),                      X,                      Y,                      Z,                     VX,                     VY,                     VZ,                     LT,                     RG,                     RR,
**************************************************************************************************************************************************************************************************************************************************************************
$$SOE
2461295.536805560, A.D. 2026-Sep-12 00:53:00.0004, -1.351075326060573E+00, -4.688804142517174E-02, -5.262543229325080E-03,  6.637412092979700E-03, -3.480389222191432E-02, -1.803936445143223E-02,  7.807917057900234E-03,  1.351898930941071E+00, -5.356039764871310E-03,
2461295.578472227, A.D. 2026-Sep-12 01:53:00.0004, -1.350797381796620E+00, -4.833754635881096E-02, -6.013945387954231E-03,  6.703892202847971E-03, -3.477232959463292E-02, -1.802792913788253E-02,  7.806625763781603E-03,  1.351675350295227E+00, -5.375826346754916E-03,
2461295.620138893, A.D. 2026-Sep-12 02:53:00.0004, -1.350516670074565E+00, -4.978573431056271E-02, -6.764869823369703E-03,  6.770250088220830E-03, -3.474067714765958E-02, -1.801643376822703E-02,  7.805329711612913E-03,  1.351450945818552E+00, -5.395583669471349E-03,
2461295.661805560, A.D. 2026-Sep-12 03:53:00.0004, -1.350233195986308E+00, -5.123260154497306E-02, -7.515314037110269E-03,  6.836485786812827E-03, -3.470893521835496E-02, -1.800487852842062E-02,  7.804028908417436E-03,  1.351225718727090E+00, -5.415311881203008E-03,
2461295.703472227, A.D. 2026-Sep-12 04:53:00.0004, -1.349946964622172E+00, -5.267814434061567E-02, -8.265275538448191E-03,  6.902599336839949E-03, -3.467710414268530E-02, -1.799326360371680E-02,  7.802723361182855E-03,  1.350999670230719E+00, -5.435011129686325E-03,
2461295.745138893, A.D. 2026-Sep-12 05:53:00.0004, -1.349657981070875E+00, -5.412235899003379E-02, -9.014751844359991E-03,  6.968590777012484E-03, -3.464518425522723E-02, -1.798158917866937E-02,  7.801413076861333E-03,  1.350772801533171E+00, -5.454681562212848E-03,
2461295.786805560, A.D. 2026-Sep-12 06:53:00.0004, -1.349366250419513E+00, -5.556524179968250E-02, -9.763740479497509E-03,  7.034460146527925E-03, -3.461317588917251E-02, -1.796985543713418E-02,  7.800098062369667E-03,  1.350545113832050E+00, -5.474323325630292E-03,
2461295.828472227, A.D. 2026-Sep-12 07:53:00.0004, -1.349071777753539E+00, -5.700678908987122E-02, -1.051223897615860E-02,  7.100207485063909E-03, -3.458107937633285E-02, -1.795806256227081E-02,  7.798778324589346E-03,  1.350316608318850E+00, -5.493936566343639E-03,
2461295.870138893, A.D. 2026-Sep-12 08:53:00.0004, -1.348774568156742E+00, -5.844699719470602E-02, -1.126024487425840E-02,  7.165832832771191E-03, -3.454889504714465E-02, -1.794621073654430E-02,  7.797453870366699E-03,  1.350087286178976E+00, -5.513521430316164E-03,
2461295.911805560, A.D. 2026-Sep-12 09:53:00.0004, -1.348474626711228E+00, -5.988586246203274E-02, -1.200775572130024E-02,  7.231336230266644E-03, -3.451662323067372E-02, -1.793430014172686E-02,  7.796124706512964E-03,  1.349857148591757E+00, -5.533078063070481E-03,
2461295.953472227, A.D. 2026-Sep-12 10:53:00.0004, -1.348171958497402E+00, -6.132338125337969E-02, -1.275476907234694E-02,  7.296717718626321E-03, -3.448426425462008E-02, -1.792233095889959E-02,  7.794790839804428E-03,  1.349626196730471E+00, -5.552606609689594E-03,
2461295.995138893, A.D. 2026-Sep-12 11:53:00.0004, -1.347866568593948E+00, -6.275954994390109E-02, -1.350128248999194E-02,  7.361977339378509E-03, -3.445181844532260E-02, -1.791030336845418E-02,  7.793452276982512E-03,  1.349394431762359E+00, -5.572107214817889E-03,
2461296.036805560, A.D. 2026-Sep-12 12:53:00.0004, -1.347558462077810E+00, -6.419436492232022E-02, -1.424729354433073E-02,  7.427115134496854E-03, -3.441928612776379E-02, -1.789821755009465E-02,  7.792109024753875E-03,  1.349161854848643E+00, -5.591580022662159E-03,
2461296.078472227, A.D. 2026-Sep-12 13:53:00.0004, -1.347247644024174E+00, -6.562782259087324E-02, -1.499279981293216E-02,  7.492131146393502E-03, -3.438666762557441E-02, -1.788607368283908E-02,  7.790761089790536E-03,  1.348928467144547E+00, -5.611025176992606E-03,
2461296.120138893, A.D. 2026-Sep-12 14:53:00.0004, -1.346934119506449E+00, -6.705991936525281E-02, -1.573779888080983E-02,  7.557025417912283E-03, -3.435396326103823E-02, -1.787387194502127E-02,  7.789408478729962E-03,  1.348694269799313E+00, -5.630442821143834E-03,
2461296.161805560, A.D. 2026-Sep-12 15:53:00.0004, -1.346617893596253E+00, -6.849065167455201E-02, -1.648228834039380E-02,  7.621797992321905E-03, -3.432117335509670E-02, -1.786161251429254E-02,  7.788051198175182E-03,  1.348459263956219E+00, -5.649833098015798E-03,
2461296.203472227, A.D. 2026-Sep-12 16:53:00.0004, -1.346298971363387E+00, -6.992001596120867E-02, -1.722626579150202E-02,  7.686448913309213E-03, -3.428829822735354E-02, -1.784929556762343E-02,  7.786689254694885E-03,  1.348223450752600E+00, -5.669196150074810E-03,
2461296.245138893, A.D. 2026-Sep-12 17:53:00.0004, -1.345977357875829E+00, -7.134800868094972E-02, -1.796972884131206E-02,  7.750978224972464E-03, -3.425533819607950E-02, -1.783692128130538E-02,  7.785322654823536E-03,  1.347986831319863E+00, -5.688532119354462E-03,
2461296.286805560, A.D. 2026-Sep-12 18:53:00.0004, -1.345653058199707E+00, -7.277462630273550E-02, -1.871267510433285E-02,  7.815385971814616E-03, -3.422229357821694E-02, -1.782448983095255E-02,  7.783951405061460E-03,  1.347749406783504E+00, -5.707841147456582E-03,
